{"type": "FeatureCollection", "features": [{"type": "Feature", "properties": {"name": "Grounds"}, "geometry": {"type": "Polygon", "coordinates": [[[1.433, 14.567], [1.433, 10.109], [1.532, 10.109], [1.552, 10.169], [1.891, 10.169], [1.91, 9.811], [1.791, 9.791], [1.771, 9.731], [1.672, 9.731], [1.731, 9.632], [2.129, 9.632], [2.209, 9.552], [2.149, 9.493], [2.149, 9.393], [1.95, 9.194], [1.851, 9.194], [1.851, 9.095], [1.95, 9.095], [1.97, 9.035], [2.09, 9.015], [2.09, 8.915], [2.149, 8.896], [2.149, 8.796], [2.209, 8.736], [2.129, 8.657], [1.731, 8.657], [1.652, 8.537], [1.433, 8.537], [1.433, 5.095], [1.91, 5.075], [1.91, 4.796], [1.791, 4.776], [1.731, 4.677], [2.328, 4.657], [2.328, 4.318], [2.269, 4.299], [2.269, 4.199], [2.189, 4.119], [2.09, 4.119], [2.01, 4.0], [1.91, 4.0], [1.91, 3.602], [1.672, 3.582], [1.652, 3.463], [1.433, 3.463], [1.433, 1.453], [4.398, 1.453], [4.418, 2.289], [6.667, 2.289], [6.687, 1.453], [21.114, 1.453], [21.114, 6.746], [20.1, 6.766], [20.1, 8.537], [20.04, 8.557], [20.04, 8.716], [20.119, 8.796], [21.114, 8.796], [21.114, 14.567], [1.433, 14.567]]]}}, {"type": "Feature", "properties": {"name": "Biscuit Factory"}, "geometry": {"type": "Polygon", "coordinates": [[[18.846, 13.731], [18.627, 13.731], [18.547, 13.851], [18.488, 13.791], [18.388, 13.791], [18.368, 13.731], [15.224, 13.731], [15.204, 13.672], [15.104, 13.672], [15.085, 13.731], [11.701, 13.731], [11.682, 13.672], [11.522, 13.672], [11.502, 13.731], [7.463, 13.731], [7.443, 13.672], [7.343, 13.672], [7.284, 13.612], [7.204, 13.731], [5.015, 13.731], [4.995, 13.672], [4.896, 13.672], [4.836, 13.612], [4.836, 13.512], [4.716, 13.433], [4.716, 10.169], [4.776, 10.149], [4.776, 10.05], [4.716, 10.03], [4.716, 9.811], [4.776, 9.751], [5.711, 9.751], [5.731, 9.811], [5.95, 9.811], [5.97, 9.751], [7.085, 9.751], [7.164, 9.632], [7.264, 9.632], [7.284, 9.692], [7.443, 9.692], [7.562, 9.811], [7.562, 11.164], [7.622, 11.184], [7.622, 11.284], [7.861, 11.303], [7.94, 11.423], [8.458, 11.423], [8.478, 11.363], [8.537, 11.423], [9.055, 11.423], [9.174, 11.542], [9.254, 11.423], [9.473, 11.423], [9.552, 11.343], [9.552, 9.811], [9.612, 9.751], [10.726, 9.751], [10.846, 9.871], [10.846, 10.09], [10.965, 10.169], [10.985, 10.348], [11.085, 10.348], [11.104, 10.289], [11.323, 10.348], [11.343, 10.169], [11.463, 10.09], [11.463, 9.811], [11.562, 9.811], [11.582, 9.751], [11.741, 9.751], [11.741, 10.687], [11.861, 10.766], [11.861, 10.866], [12.0, 11.005], [14.189, 11.005], [14.209, 10.766], [14.269, 10.746], [14.269, 9.811], [14.328, 9.751], [14.726, 9.751], [14.786, 9.811], [14.786, 10.03], [14.846, 10.05], [14.846, 10.149], [14.965, 10.229], [14.985, 10.587], [15.204, 10.527], [15.343, 10.289], [15.383, 10.289], [15.383, 10.388], [15.582, 10.587], [15.741, 10.587], [15.761, 10.229], [15.821, 10.209], [15.821, 10.109], [15.94, 10.03], [15.94, 9.811], [16.0, 9.751], [16.398, 9.751], [16.478, 9.632], [16.577, 9.692], [16.577, 9.791], [16.637, 9.811], [16.637, 10.209], [16.896, 10.468], [17.771, 10.468], [17.791, 9.811], [17.851, 9.751], [18.786, 9.751], [18.846, 9.811], [18.846, 10.806], [18.388, 10.806], [18.308, 10.886], [18.308, 12.716], [18.388, 12.796], [18.846, 12.796], [18.846, 13.731]]]}}, {"type": "Feature", "properties": {"name": "Security Office"}, "geometry": {"type": "Polygon", "coordinates": [[[2.149, 12.955], [2.149, 11.841], [2.209, 11.781], [4.1, 11.781], [4.1, 11.94], [4.159, 11.96], [4.159, 12.776], [4.1, 12.796], [4.1, 12.955], [2.149, 12.955]]]}}, {"type": "Feature", "properties": {"name": "Utility Room"}, "geometry": {"type": "Polygon", "coordinates": [[[18.388, 12.776], [18.328, 12.716], [18.328, 10.886], [18.388, 10.826], [18.786, 10.826], [18.846, 10.886], [18.846, 12.716], [18.786, 12.776], [18.388, 12.776]]]}}, {"type": "Feature", "properties": {"name": "Store B"}, "geometry": {"type": "Polygon", "coordinates": [[[7.94, 11.403], [7.861, 11.284], [7.642, 11.284], [7.642, 11.184], [7.582, 11.164], [7.582, 9.811], [7.682, 9.811], [7.701, 9.751], [8.398, 9.751], [8.418, 9.811], [8.517, 9.811], [8.517, 11.343], [8.458, 11.403], [7.94, 11.403]]]}}, {"type": "Feature", "properties": {"name": "Store"}, "geometry": {"type": "Polygon", "coordinates": [[[9.473, 11.403], [9.254, 11.403], [9.174, 11.522], [9.055, 11.403], [8.537, 11.403], [8.537, 9.811], [8.597, 9.751], [9.413, 9.751], [9.433, 9.811], [9.532, 9.811], [9.532, 11.343], [9.473, 11.403]]]}}, {"type": "Feature", "properties": {"name": "Prep Room"}, "geometry": {"type": "Polygon", "coordinates": [[[12.0, 10.985], [11.881, 10.866], [11.881, 10.766], [11.761, 10.687], [11.761, 9.751], [11.881, 9.632], [11.98, 9.632], [12.0, 9.692], [12.1, 9.692], [12.119, 9.751], [12.995, 9.751], [13.055, 9.811], [13.055, 10.985], [12.0, 10.985]]]}}, {"type": "Feature", "properties": {"name": "Mixer"}, "geometry": {"type": "Polygon", "coordinates": [[[13.075, 10.985], [13.075, 9.811], [13.174, 9.811], [13.194, 9.751], [14.129, 9.751], [14.149, 9.811], [14.249, 9.811], [14.249, 10.746], [14.189, 10.766], [14.189, 10.985], [13.075, 10.985]]]}}, {"type": "Feature", "properties": {"name": "Gate G-1"}, "geometry": {"type": "Polygon", "coordinates": [[[14.985, 10.567], [14.985, 10.229], [14.866, 10.149], [14.866, 10.05], [14.806, 10.03], [14.806, 9.751], [14.866, 9.692], [15.861, 9.692], [15.92, 9.751], [15.92, 10.03], [15.801, 10.109], [15.801, 10.209], [15.741, 10.229], [15.741, 10.567], [15.582, 10.567], [15.403, 10.388], [15.383, 10.269], [15.264, 10.348], [15.264, 10.448], [15.204, 10.507], [14.985, 10.567]]]}}, {"type": "Feature", "properties": {"name": "Sugar Room"}, "geometry": {"type": "Polygon", "coordinates": [[[16.657, 10.209], [16.657, 9.811], [16.597, 9.791], [16.597, 9.692], [16.657, 9.751], [17.771, 9.751], [17.771, 10.448], [16.896, 10.448], [16.657, 10.209]]]}}, {"type": "Feature", "properties": {"name": "Gate G-2"}, "geometry": {"type": "Polygon", "coordinates": [[[10.985, 10.328], [10.985, 10.169], [10.866, 10.09], [10.866, 9.871], [10.806, 9.811], [10.925, 9.692], [11.443, 9.692], [11.502, 9.791], [11.443, 9.811], [11.443, 10.09], [11.323, 10.169], [11.323, 10.328], [11.224, 10.328], [11.204, 10.269], [10.985, 10.328]]]}}, {"type": "Feature", "properties": {"name": "Entrance (West)"}, "geometry": {"type": "Polygon", "coordinates": [[[1.254, 9.672], [1.254, 8.617], [1.413, 8.617], [1.433, 8.557], [1.652, 8.557], [1.731, 8.677], [2.129, 8.677], [2.189, 8.776], [2.129, 8.796], [2.07, 9.015], [1.851, 9.075], [1.831, 9.194], [1.95, 9.214], [2.129, 9.393], [2.129, 9.493], [2.189, 9.552], [2.129, 9.612], [1.731, 9.612], [1.711, 9.672], [1.254, 9.672]]]}}, {"type": "Feature", "properties": {"name": "Toilets"}, "geometry": {"type": "Polygon", "coordinates": [[[20.119, 8.776], [20.06, 8.716], [20.06, 8.557], [20.119, 8.537], [20.119, 6.766], [21.114, 6.766], [21.114, 8.776], [20.119, 8.776]]]}}, {"type": "Feature", "properties": {"name": "Offices Collider"}, "geometry": {"type": "Polygon", "coordinates": [[[7.701, 7.761], [7.701, 7.363], [9.592, 7.363], [9.612, 7.423], [9.771, 7.423], [9.791, 7.363], [10.07, 7.363], [10.09, 7.423], [10.189, 7.423], [10.209, 7.363], [11.144, 7.363], [11.164, 7.423], [11.323, 7.423], [11.343, 7.363], [14.965, 7.363], [14.965, 7.821], [7.761, 7.821], [7.701, 7.761]]]}}, {"type": "Feature", "properties": {"name": "Finished Product Store"}, "geometry": {"type": "Polygon", "coordinates": [[[5.612, 7.343], [5.552, 7.284], [5.552, 5.632], [5.493, 5.612], [5.493, 5.453], [5.612, 5.373], [5.612, 5.154], [5.672, 5.134], [5.672, 5.035], [5.612, 5.015], [5.612, 4.915], [5.552, 4.896], [5.552, 3.184], [5.612, 3.124], [7.383, 3.124], [7.383, 7.343], [5.612, 7.343]]]}}, {"type": "Feature", "properties": {"name": "Pasta & Macaroni Factory"}, "geometry": {"type": "Polygon", "coordinates": [[[7.403, 7.343], [7.403, 3.124], [15.204, 3.124], [15.224, 3.184], [15.323, 3.184], [15.323, 3.403], [15.204, 3.483], [15.204, 7.343], [11.343, 7.343], [11.323, 7.403], [11.164, 7.403], [11.144, 7.343], [10.209, 7.343], [10.189, 7.403], [10.09, 7.403], [10.07, 7.343], [9.791, 7.343], [9.771, 7.403], [9.612, 7.403], [9.592, 7.343], [7.403, 7.343]]]}}, {"type": "Feature", "properties": {"name": "Floor Store"}, "geometry": {"type": "Polygon", "coordinates": [[[15.224, 7.343], [15.224, 3.483], [15.343, 3.403], [15.343, 3.184], [15.443, 3.184], [15.463, 3.124], [16.935, 3.124], [16.995, 3.184], [16.995, 5.015], [17.055, 5.035], [17.055, 5.254], [17.114, 5.274], [17.114, 5.373], [17.174, 5.393], [17.174, 5.493], [17.234, 5.512], [17.114, 5.632], [17.055, 5.851], [16.995, 5.871], [16.995, 7.045], [16.935, 7.065], [16.935, 7.164], [16.876, 7.224], [16.597, 7.224], [16.577, 7.284], [16.478, 7.284], [16.458, 7.343], [15.224, 7.343]]]}}, {"type": "Feature", "properties": {"name": "Mizzan"}, "geometry": {"type": "Polygon", "coordinates": [[[4.776, 1.91], [4.776, 1.453], [6.368, 1.453], [6.368, 1.91], [4.776, 1.91]]]}}]}