{"type": "FeatureCollection", "features": [{"type": "Feature", "properties": {"name": "Main Hall"}, "geometry": {"type": "Polygon", "coordinates": [[[6.4, 12.0], [6.4, 11.911], [6.533, 11.867], [6.533, 11.644], [6.667, 11.6], [6.667, 11.378], [6.756, 11.378], [6.8, 11.244], [6.933, 11.2], [6.933, 10.978], [7.067, 10.933], [7.067, 8.578], [6.933, 8.533], [6.933, 8.311], [6.8, 8.267], [6.8, 7.778], [6.933, 7.733], [6.933, 7.111], [7.067, 7.067], [7.067, 6.311], [6.933, 6.267], [6.933, 6.044], [7.156, 6.044], [7.2, 5.911], [7.333, 5.867], [7.333, 3.911], [7.689, 3.911], [7.689, 4.133], [7.822, 4.178], [7.822, 4.667], [7.689, 4.711], [7.689, 6.133], [7.822, 6.178], [7.822, 6.8], [7.689, 6.844], [7.689, 8.267], [8.356, 8.311], [8.4, 9.778], [10.356, 9.778], [10.4, 8.444], [10.489, 8.444], [10.533, 8.311], [11.2, 8.267], [11.2, 6.844], [11.067, 6.8], [11.067, 6.178], [11.2, 6.133], [11.2, 4.844], [11.067, 4.8], [11.067, 4.178], [11.2, 4.133], [11.2, 3.911], [11.556, 3.911], [11.556, 4.0], [11.689, 4.044], [11.689, 5.067], [11.822, 5.111], [11.822, 5.867], [11.689, 5.911], [11.689, 6.4], [11.822, 6.444], [11.822, 8.267], [11.956, 8.311], [11.956, 8.4], [12.089, 8.444], [12.133, 8.578], [12.222, 8.578], [12.222, 8.933], [12.089, 8.978], [12.089, 9.467], [12.222, 9.511], [12.222, 9.6], [12.089, 9.644], [12.089, 10.267], [12.222, 10.311], [12.222, 11.867], [12.0, 11.867], [12.0, 11.778], [11.867, 11.733], [11.822, 11.6], [11.6, 11.6], [11.6, 11.511], [11.467, 11.467], [11.422, 11.333], [8.533, 11.333], [8.489, 11.467], [8.267, 11.467], [8.222, 11.6], [8.133, 11.6], [8.089, 11.733], [8.0, 11.733], [7.956, 11.867], [7.822, 11.911], [7.822, 12.0], [6.4, 12.0]]]}}, {"type": "Feature", "properties": {"name": "Lounge"}, "geometry": {"type": "Polygon", "coordinates": [[[12.267, 8.667], [12.267, 8.578], [12.133, 8.533], [12.133, 8.444], [12.0, 8.4], [11.956, 8.267], [11.867, 8.267], [11.867, 6.444], [13.956, 6.444], [13.956, 7.467], [13.867, 7.467], [13.822, 7.6], [13.689, 7.644], [13.689, 8.533], [13.467, 8.533], [13.422, 8.667], [12.267, 8.667]]]}}, {"type": "Feature", "properties": {"name": "Linen Room"}, "geometry": {"type": "Polygon", "coordinates": [[[11.733, 6.4], [11.733, 5.911], [11.867, 5.867], [11.867, 5.111], [13.556, 5.111], [13.6, 4.978], [13.733, 4.933], [13.733, 4.711], [14.222, 4.711], [14.222, 4.8], [14.089, 4.844], [14.089, 5.2], [13.956, 5.244], [13.956, 6.4], [11.733, 6.4]]]}}, {"type": "Feature", "properties": {"name": "S.T.A.R.S. Office"}, "geometry": {"type": "Polygon", "coordinates": [[[1.067, 7.067], [1.067, 4.444], [3.556, 4.444], [3.556, 4.933], [3.689, 4.978], [3.689, 5.867], [3.6, 5.867], [3.556, 6.0], [3.422, 6.044], [3.422, 6.133], [2.667, 6.133], [2.622, 6.267], [2.489, 6.311], [2.489, 6.533], [2.4, 6.533], [2.356, 6.667], [2.267, 6.667], [2.222, 6.8], [2.089, 6.844], [2.089, 6.933], [1.333, 6.933], [1.289, 7.067], [1.067, 7.067]]]}}, {"type": "Feature", "properties": {"name": "Stairs SE"}, "geometry": {"type": "Polygon", "coordinates": [[[16.267, 6.667], [16.267, 5.111], [16.0, 5.067], [16.0, 4.711], [17.289, 4.711], [17.333, 5.644], [18.356, 5.644], [18.4, 5.111], [18.622, 5.111], [18.622, 5.867], [16.622, 5.911], [16.667, 6.444], [17.822, 6.444], [17.822, 6.533], [16.933, 6.533], [16.889, 6.667], [16.267, 6.667]]]}}, {"type": "Feature", "properties": {"name": "West Storage Room"}, "geometry": {"type": "Polygon", "coordinates": [[[1.067, 12.0], [1.067, 11.378], [1.422, 11.378], [1.467, 11.244], [1.689, 11.244], [1.733, 11.111], [1.867, 11.067], [1.867, 10.978], [2.089, 10.978], [2.133, 10.844], [2.489, 10.844], [2.533, 10.578], [2.667, 10.533], [2.667, 10.311], [2.756, 10.311], [2.8, 10.178], [2.933, 10.133], [2.933, 10.044], [3.956, 10.044], [3.956, 10.4], [4.089, 10.444], [4.089, 10.667], [4.222, 10.711], [4.222, 11.067], [4.089, 11.111], [4.089, 12.0], [1.067, 12.0]]]}}, {"type": "Feature", "properties": {"name": "Shower Room"}, "geometry": {"type": "Polygon", "coordinates": [[[4.133, 11.111], [4.222, 11.111], [4.267, 10.978], [4.489, 10.978], [4.489, 11.067], [4.622, 11.111], [4.667, 10.978], [5.022, 10.978], [5.067, 10.844], [5.156, 10.844], [5.156, 10.933], [5.289, 10.978], [5.289, 11.067], [5.422, 11.111], [5.422, 11.2], [5.556, 11.244], [5.556, 11.333], [5.689, 11.378], [5.689, 11.467], [5.822, 11.511], [5.867, 11.644], [6.089, 11.644], [6.089, 11.733], [6.222, 11.778], [6.222, 11.867], [6.356, 11.911], [6.356, 12.0], [4.133, 12.0], [4.133, 11.111]]]}}, {"type": "Feature", "properties": {"name": "Library"}, "geometry": {"type": "Polygon", "coordinates": [[[6.489, 11.867], [6.267, 11.867], [6.267, 11.778], [6.133, 11.733], [6.089, 11.6], [5.867, 11.6], [5.867, 11.511], [5.733, 11.467], [5.733, 11.378], [5.6, 11.333], [5.6, 11.244], [5.467, 11.2], [5.467, 11.111], [5.333, 11.067], [5.333, 10.978], [5.2, 10.933], [5.156, 10.8], [5.067, 10.8], [5.022, 10.933], [4.667, 10.933], [4.622, 11.067], [4.533, 11.067], [4.489, 10.933], [4.267, 10.933], [4.267, 10.711], [4.133, 10.667], [4.133, 10.444], [4.0, 10.4], [4.0, 9.778], [4.133, 9.733], [4.133, 9.244], [4.267, 9.2], [4.267, 8.311], [5.156, 8.311], [5.2, 8.178], [6.089, 8.178], [6.133, 8.311], [6.889, 8.311], [6.889, 8.533], [7.022, 8.578], [7.022, 10.933], [6.889, 10.978], [6.889, 11.2], [6.8, 11.2], [6.756, 11.333], [6.622, 11.378], [6.622, 11.6], [6.489, 11.644], [6.489, 11.867]]]}}, {"type": "Feature", "properties": {"name": "Balcony (West)"}, "geometry": {"type": "Polygon", "coordinates": [[[1.067, 11.333], [1.067, 8.311], [2.089, 8.311], [2.133, 8.444], [2.489, 8.444], [2.489, 9.333], [2.622, 9.378], [2.622, 9.6], [2.756, 9.644], [2.756, 9.733], [2.889, 9.778], [2.889, 9.867], [3.022, 9.911], [3.022, 10.0], [2.933, 10.0], [2.889, 10.133], [2.8, 10.133], [2.756, 10.267], [2.622, 10.311], [2.622, 10.533], [2.489, 10.578], [2.489, 10.8], [2.133, 10.8], [2.089, 10.933], [1.867, 10.933], [1.822, 11.067], [1.689, 11.111], [1.689, 11.2], [1.467, 11.2], [1.422, 11.333], [1.067, 11.333]]]}}, {"type": "Feature", "properties": {"name": "West Corridor"}, "geometry": {"type": "Polygon", "coordinates": [[[1.067, 8.267], [1.067, 7.111], [1.289, 7.111], [1.333, 6.978], [2.089, 6.978], [2.133, 6.844], [2.222, 6.844], [2.267, 6.711], [2.356, 6.711], [2.4, 6.578], [2.533, 6.533], [2.533, 6.311], [2.622, 6.311], [2.667, 6.178], [3.422, 6.178], [3.467, 6.044], [3.6, 6.0], [3.6, 5.911], [3.689, 5.911], [3.733, 6.044], [3.956, 6.044], [3.956, 6.133], [4.089, 6.178], [4.133, 6.311], [4.222, 6.311], [4.267, 6.178], [4.489, 6.178], [4.533, 6.044], [5.156, 6.044], [5.156, 6.4], [5.289, 6.444], [5.333, 6.578], [6.622, 6.578], [6.667, 6.444], [6.8, 6.4], [6.8, 6.311], [7.022, 6.311], [7.022, 7.067], [6.889, 7.111], [6.889, 7.733], [6.756, 7.778], [6.756, 8.267], [6.133, 8.267], [6.089, 8.133], [5.2, 8.133], [5.156, 8.267], [4.267, 8.267], [4.222, 9.2], [4.089, 9.244], [4.089, 9.733], [3.956, 9.778], [3.956, 10.0], [3.067, 10.0], [3.067, 9.911], [2.933, 9.867], [2.933, 9.778], [2.8, 9.733], [2.756, 9.6], [2.667, 9.6], [2.667, 9.378], [2.533, 9.333], [2.489, 8.4], [2.133, 8.4], [2.089, 8.267], [1.067, 8.267]]]}}, {"type": "Feature", "properties": {"name": "Locker Room"}, "geometry": {"type": "Polygon", "coordinates": [[[3.733, 6.0], [3.733, 4.978], [3.6, 4.933], [3.6, 4.444], [5.822, 4.444], [5.822, 5.733], [5.6, 5.733], [5.556, 5.867], [5.2, 5.867], [5.156, 6.0], [4.533, 6.0], [4.489, 6.133], [4.267, 6.133], [4.222, 6.267], [4.133, 6.267], [4.133, 6.178], [4.0, 6.133], [3.956, 6.0], [3.733, 6.0]]]}}, {"type": "Feature", "properties": {"name": "Waiting Room"}, "geometry": {"type": "Polygon", "coordinates": [[[8.133, 11.644], [8.222, 11.644], [8.267, 11.511], [8.489, 11.511], [8.533, 11.378], [11.422, 11.378], [11.422, 11.467], [11.556, 11.511], [11.6, 11.644], [11.822, 11.644], [11.822, 11.733], [11.956, 11.778], [11.956, 11.867], [11.2, 11.867], [11.156, 12.133], [8.8, 12.133], [8.8, 12.044], [8.667, 12.0], [8.622, 11.733], [8.133, 11.733], [8.133, 11.644]]]}}, {"type": "Feature", "properties": {"name": "East Storage Room"}, "geometry": {"type": "Polygon", "coordinates": [[[16.8, 11.2], [16.8, 9.644], [16.667, 9.6], [16.622, 9.467], [16.133, 9.467], [16.133, 9.378], [16.0, 9.333], [15.956, 9.2], [15.867, 9.2], [15.867, 8.978], [15.733, 8.933], [15.733, 8.844], [15.867, 8.8], [15.867, 8.444], [16.756, 8.444], [16.8, 8.311], [16.933, 8.267], [16.933, 6.978], [16.267, 6.933], [16.267, 6.711], [16.889, 6.711], [16.933, 6.578], [17.822, 6.578], [17.867, 6.444], [18.889, 6.444], [18.889, 11.2], [18.533, 11.2], [18.489, 11.067], [17.067, 11.067], [17.022, 11.2], [16.8, 11.2]]]}}, {"type": "Feature", "properties": {"name": "East Corridor"}, "geometry": {"type": "Polygon", "coordinates": [[[12.267, 10.933], [12.267, 10.311], [12.133, 10.267], [12.133, 9.644], [12.222, 9.644], [12.267, 9.511], [12.133, 9.467], [12.133, 8.978], [12.267, 8.933], [12.267, 8.711], [13.422, 8.711], [13.467, 8.578], [13.733, 8.533], [13.733, 7.644], [13.822, 7.644], [13.867, 7.511], [14.0, 7.467], [14.0, 5.244], [14.133, 5.2], [14.133, 4.844], [14.222, 4.844], [14.267, 4.711], [15.956, 4.711], [15.956, 5.067], [15.689, 5.111], [15.689, 8.4], [15.822, 8.444], [15.822, 8.8], [15.733, 8.8], [15.689, 8.933], [15.822, 8.978], [15.822, 9.2], [15.956, 9.244], [15.956, 9.333], [16.089, 9.378], [16.089, 9.467], [15.956, 9.511], [15.956, 9.733], [15.867, 9.733], [15.822, 9.867], [15.689, 9.911], [15.689, 11.333], [15.067, 11.333], [15.067, 11.111], [14.933, 11.067], [14.889, 10.933], [12.267, 10.933]]]}}, {"type": "Feature", "properties": {"name": "Stairs NE"}, "geometry": {"type": "Polygon", "coordinates": [[[16.8, 11.333], [16.8, 11.244], [17.022, 11.244], [17.067, 11.111], [18.489, 11.111], [18.533, 11.244], [18.889, 11.244], [18.889, 11.733], [18.667, 11.733], [18.622, 11.867], [17.067, 11.867], [17.067, 11.778], [16.933, 11.733], [16.933, 11.378], [16.8, 11.333]]]}}, {"type": "Feature", "properties": {"name": "Stairs East"}, "geometry": {"type": "Polygon", "coordinates": [[[15.733, 11.333], [15.733, 9.911], [15.822, 9.911], [15.867, 9.778], [16.0, 9.733], [16.0, 9.511], [16.622, 9.511], [16.622, 9.6], [16.756, 9.644], [16.756, 11.333], [15.733, 11.333]]]}}, {"type": "Feature", "properties": {"name": "Stairs West"}, "geometry": {"type": "Polygon", "coordinates": [[[5.2, 6.4], [5.2, 5.911], [5.556, 5.911], [5.6, 5.778], [5.822, 5.778], [5.867, 6.044], [6.889, 6.044], [6.889, 6.267], [6.8, 6.267], [6.756, 6.4], [6.622, 6.444], [6.622, 6.533], [5.333, 6.533], [5.333, 6.444], [5.2, 6.4]]]}}]}